[
  {
    "id": 0,
    "Name": "Albertville Discount Pharmacy",
    "Address": 0,
    "City": "Albertville",
    "State": "AL",
    "Zip": 0,
    "PhoneNumber": "256-878-1515",
    "FaxNumber": "256-891-3155"
  },
  {
    "id": 1,
    "Name": "Ambulatory Pharmacy",
    "Address": 0,
    "City": "Huntsville",
    "State": "AL",
    "Zip": 0,
    "PhoneNumber": "256-534-4533",
    "FaxNumber": "256-534-1208"
  },
  {
    "id": 2,
    "Name": "Apotheca Supply",
    "Address": 0,
    "City": "Decatur",
    "State": "AL",
    "Zip": 0,
    "PhoneNumber": "256-350-2347",
    "FaxNumber": "256-350-2345"
  },
  {
    "id": 3,
    "Name": "Athens Creekside Pharmacy",
    "Address": 0,
    "City": "Athens",
    "State": "AL",
    "Zip": 0,
    "PhoneNumber": "256-232-8274",
    "FaxNumber": "256-232-2029"
  },
  {
    "id": 4,
    "Name": "Athens Pharmacy",
    "Address": 0,
    "City": "Athens",
    "State": "AL",
    "Zip": 0,
    "PhoneNumber": "256-232-2242",
    "FaxNumber": "256-230-2601"
  },
  {
    "id": 5,
    "Name": "Barnett Drugs",
    "Address": 0,
    "City": "Rogersville",
    "State": "AL",
    "Zip": 0,
    "PhoneNumber": "256-247-5451",
    "FaxNumber": "256-247-7866"
  },
  {
    "id": 6,
    "Name": "Bendall's Pharmacy",
    "Address": 0,
    "City": "Decatur",
    "State": "AL",
    "Zip": 0,
    "PhoneNumber": "256-353-2021",
    "FaxNumber": "256-353-2093"
  },
  {
    "id": 7,
    "Name": "Big C 106 Parks Av",
    "Address": 0,
    "City": "Scottsboro",
    "State": "AL",
    "Zip": 0,
    "PhoneNumber": "256-574-5520",
    "FaxNumber": "256-259-5311"
  },
  {
    "id": 8,
    "Name": "Big C: 21549 AL Hwy 79",
    "Address": 0,
    "City": "Skyline",
    "State": "AL",
    "Zip": 0,
    "PhoneNumber": "256-587-3342",
    "FaxNumber": "256-587-3352"
  },
  {
    "id": 9,
    "Name": "Boaz Discount",
    "Address": 0,
    "City": "Boaz",
    "State": "AL",
    "Zip": 0,
    "PhoneNumber": "256-593-6546",
    "FaxNumber": "256-593-3137"
  },
  {
    "id": 10,
    "Name": "Bunch Pharmacy",
    "Address": 0,
    "City": "Guntersville",
    "State": "AL",
    "Zip": 0,
    "PhoneNumber": "256-582-5700",
    "FaxNumber": "256-582-3827"
  },
  {
    "id": 11,
    "Name": "Camp Drugs",
    "Address": 0,
    "City": "Henagar",
    "State": "AL",
    "Zip": 0,
    "PhoneNumber": "256-657-5187",
    "FaxNumber": "256-657-2232"
  },
  {
    "id": 12,
    "Name": "CareDirect Rx",
    "Address": 0,
    "City": "Madison",
    "State": "AL",
    "Zip": 0,
    "PhoneNumber": "256-464-9949",
    "FaxNumber": "256-464-9950"
  },
  {
    "id": 13,
    "Name": "Carter's at Stonebridge",
    "Address": 0,
    "City": "Fayetteville",
    "State": "TN",
    "Zip": 0,
    "PhoneNumber": "931-438-0760",
    "FaxNumber": "931-433-1169"
  },
  {
    "id": 14,
    "Name": "Carter's Drugs",
    "Address": 0,
    "City": "Fayetteville",
    "State": "TN",
    "Zip": 0,
    "PhoneNumber": "931-433-1511",
    "FaxNumber": "931-433-6854"
  },
  {
    "id": 15,
    "Name": "Central No. AL Health Services",
    "Address": 0,
    "City": "Huntsville",
    "State": "AL",
    "Zip": 0,
    "PhoneNumber": "256-533-6311",
    "FaxNumber": "256-536-0801"
  },
  {
    "id": 16,
    "Name": "Chase Pharmacy",
    "Address": 0,
    "City": "Huntsville",
    "State": "AL",
    "Zip": 0,
    "PhoneNumber": "256-851-1345",
    "FaxNumber": "256-851-1347"
  },
  {
    "id": 17,
    "Name": "Clark's Pharmacy",
    "Address": 0,
    "City": "Boaz",
    "State": "AL",
    "Zip": 0,
    "PhoneNumber": "256-840-1100",
    "FaxNumber": "256-840-1109"
  },
  {
    "id": 18,
    "Name": "Clearview Pharmacy - CCI Drive",
    "Address": 0,
    "City": "Huntsville",
    "State": "AL",
    "Zip": 0,
    "PhoneNumber": "256-327-5900",
    "FaxNumber": "256-704-3386"
  },
  {
    "id": 19,
    "Name": "Costco Pharmacy",
    "Address": 0,
    "City": "Huntsville",
    "State": "AL",
    "Zip": 0,
    "PhoneNumber": "256-519-2222",
    "FaxNumber": "256-519-2229"
  },
  {
    "id": 20,
    "Name": "Cullman Discount Drugs",
    "Address": 0,
    "City": "Cullman",
    "State": "AL",
    "Zip": 0,
    "PhoneNumber": "256-734-4251",
    "FaxNumber": "256-734-4234"
  },
  {
    "id": 21,
    "Name": "CVS",
    "Address": 0,
    "City": "Albertville",
    "State": "AL",
    "Zip": 0,
    "PhoneNumber": "256-878-3502",
    "FaxNumber": "256-878-3846"
  },
  {
    "id": 22,
    "Name": "CVS",
    "Address": 0,
    "City": "Arab",
    "State": "AL",
    "Zip": 0,
    "PhoneNumber": "256-586-6021",
    "FaxNumber": "256-586-1327"
  },
  {
    "id": 23,
    "Name": "CVS",
    "Address": 0,
    "City": "Athens",
    "State": "AL",
    "Zip": 0,
    "PhoneNumber": "256-233-0514",
    "FaxNumber": "256-230-3104"
  },
  {
    "id": 24,
    "Name": "CVS",
    "Address": 0,
    "City": "Cullman",
    "State": "AL",
    "Zip": 0,
    "PhoneNumber": "256-739-4601",
    "FaxNumber": "256-775-1285"
  },
  {
    "id": 25,
    "Name": "CVS",
    "Address": 0,
    "City": "Decatur",
    "State": "AL",
    "Zip": 0,
    "PhoneNumber": "256-355-8465",
    "FaxNumber": "256-308-2795"
  },
  {
    "id": 26,
    "Name": "CVS",
    "Address": 0,
    "City": "Fayetteville",
    "State": "TN",
    "Zip": 0,
    "PhoneNumber": "931-433-7110",
    "FaxNumber": "931-433-5473"
  },
  {
    "id": 27,
    "Name": "CVS",
    "Address": 0,
    "City": "Guntersville",
    "State": "AL",
    "Zip": 0,
    "PhoneNumber": "256-505-0803",
    "FaxNumber": "256-582-6573"
  },
  {
    "id": 28,
    "Name": "CVS",
    "Address": 0,
    "City": "Hanceville",
    "State": "AL",
    "Zip": 0,
    "PhoneNumber": "256-352-6998",
    "FaxNumber": "256-352-4879"
  },
  {
    "id": 29,
    "Name": "CVS",
    "Address": 0,
    "City": "Hartselle",
    "State": "AL",
    "Zip": 0,
    "PhoneNumber": "256-773-1768",
    "FaxNumber": "256-773-6455"
  },
  {
    "id": 30,
    "Name": "CVS",
    "Address": 0,
    "City": "Harvest",
    "State": "AL",
    "Zip": 0,
    "PhoneNumber": "256-851-5350",
    "FaxNumber": "256-851-5356"
  },
  {
    "id": 31,
    "Name": "CVS Providence Main St.",
    "Address": 0,
    "City": "Huntsville",
    "State": "AL",
    "Zip": 0,
    "PhoneNumber": "256-837-2057",
    "FaxNumber": "256-837-9858"
  },
  {
    "id": 32,
    "Name": "CVS S. Mem'l Pky",
    "Address": 0,
    "City": "Huntsville",
    "State": "AL",
    "Zip": 0,
    "PhoneNumber": "256-650-1543",
    "FaxNumber": "256-650-1597"
  },
  {
    "id": 33,
    "Name": "CVS Cecil Ashburn Dr. SE",
    "Address": 0,
    "City": "Huntsville",
    "State": "AL",
    "Zip": 0,
    "PhoneNumber": "256-880-1470",
    "FaxNumber": "256-881-5475"
  },
  {
    "id": 34,
    "Name": "CVS Winchester Rd.",
    "Address": 0,
    "City": "Huntsville",
    "State": "AL",
    "Zip": 0,
    "PhoneNumber": "256-858-8595",
    "FaxNumber": "256-858-8596"
  },
  {
    "id": 35,
    "Name": "CVS Whitesburg Dr.",
    "Address": 0,
    "City": "Huntsville",
    "State": "AL",
    "Zip": 0,
    "PhoneNumber": "256-533-6181",
    "FaxNumber": "256-533-9857"
  },
  {
    "id": 36,
    "Name": "CVS Oakwood Ave NW",
    "Address": 0,
    "City": "Huntsville",
    "State": "AL",
    "Zip": 0,
    "PhoneNumber": "256-533-5754",
    "FaxNumber": "256-533-1849"
  },
  {
    "id": 37,
    "Name": "CVS Bob Wallace Ave",
    "Address": 0,
    "City": "Huntsville",
    "State": "AL",
    "Zip": 0,
    "PhoneNumber": "256-534-0637",
    "FaxNumber": "256-534-5266"
  },
  {
    "id": 38,
    "Name": "CVS Winchester Rd.",
    "Address": 0,
    "City": "Huntsville",
    "State": "AL",
    "Zip": 0,
    "PhoneNumber": "256-852-1915",
    "FaxNumber": "256-852-0468"
  },
  {
    "id": 39,
    "Name": "CVS",
    "Address": 0,
    "City": "Lawrenceburg",
    "State": "TN",
    "Zip": 0,
    "PhoneNumber": "931-762-0800",
    "FaxNumber": "931-762-4939"
  },
  {
    "id": 40,
    "Name": "CVS  Hwy 72W/Balch",
    "Address": 0,
    "City": "Madison",
    "State": "AL",
    "Zip": 0,
    "PhoneNumber": "256-837-3362",
    "FaxNumber": "256-837-3726"
  },
  {
    "id": 41,
    "Name": "CVS Old Madison Pike",
    "Address": 0,
    "City": "Madison",
    "State": "AL",
    "Zip": 0,
    "PhoneNumber": "256-461-7799",
    "FaxNumber": "256-772-4128"
  },
  {
    "id": 42,
    "Name": "CVS",
    "Address": 0,
    "City": "MER",
    "State": "AL",
    "Zip": 0,
    "PhoneNumber": "256-828-8550",
    "FaxNumber": "256-828-8502"
  },
  {
    "id": 43,
    "Name": "CVS",
    "Address": 0,
    "City": "STE",
    "State": "AL",
    "Zip": 0,
    "PhoneNumber": "256-974-5291",
    "FaxNumber": "256-974-3844"
  },
  {
    "id": 44,
    "Name": "CVS",
    "Address": 0,
    "City": "Pulaski",
    "State": "TN",
    "Zip": 0,
    "PhoneNumber": "931-363-1132",
    "FaxNumber": "931-363-7165"
  },
  {
    "id": 45,
    "Name": "CVS",
    "Address": 0,
    "City": "Scottsboro",
    "State": "AL",
    "Zip": 0,
    "PhoneNumber": "256-259-2832",
    "FaxNumber": "256-259-2891"
  },
  {
    "id": 46,
    "Name": "CVS",
    "Address": 0,
    "City": "Shelbyville",
    "State": "TN",
    "Zip": 0,
    "PhoneNumber": "931-684-8702",
    "FaxNumber": "931-684-2217"
  },
  {
    "id": 47,
    "Name": "Eastside Pharmacy",
    "Address": 0,
    "City": "Athens",
    "State": "AL",
    "Zip": 0,
    "PhoneNumber": "256-233-7070",
    "FaxNumber": "256-233-8891"
  },
  {
    "id": 48,
    "Name": "Fox Army Health Ctr",
    "Address": 0,
    "City": "Huntsville",
    "State": "AL",
    "Zip": 0,
    "PhoneNumber": "256-842-7337",
    "FaxNumber": "256-955-0189"
  },
  {
    "id": 49,
    "Name": "Fred's Pharmacy",
    "Address": 0,
    "City": "Ardmore",
    "State": "AL",
    "Zip": 0,
    "PhoneNumber": "256-423-8989",
    "FaxNumber": "256-423-8990"
  },
  {
    "id": 50,
    "Name": "Fred's Pharmacy",
    "Address": 0,
    "City": "Fayetteville",
    "State": "TN",
    "Zip": 0,
    "PhoneNumber": "931-438-2626",
    "FaxNumber": "931-438-2629"
  },
  {
    "id": 51,
    "Name": "Fred's Pharmacy",
    "Address": 0,
    "City": "Pulaski",
    "State": "TN",
    "Zip": 0,
    "PhoneNumber": "931-424-6573",
    "FaxNumber": "931-424-9820"
  },
  {
    "id": 52,
    "Name": "Fred's Pharmacy",
    "Address": 0,
    "City": "Rogersville",
    "State": "AL",
    "Zip": 0,
    "PhoneNumber": "256-247-6830",
    "FaxNumber": "256-247-6833"
  },
  {
    "id": 53,
    "Name": "Gilchrest Pharmacy",
    "Address": 0,
    "City": "Hartselle",
    "State": "AL",
    "Zip": 0,
    "PhoneNumber": "256-773-1998",
    "FaxNumber": "256-751-0625"
  },
  {
    "id": 54,
    "Name": "Grant Pharmacy",
    "Address": 0,
    "City": "Grant",
    "State": "AL",
    "Zip": 0,
    "PhoneNumber": "256-728-7545",
    "FaxNumber": "256-728-5603"
  },
  {
    "id": 55,
    "Name": "Gurley Pharmacy",
    "Address": 0,
    "City": "Gurley",
    "State": "AL",
    "Zip": 0,
    "PhoneNumber": "256-776-4430",
    "FaxNumber": "256-776-4523"
  },
  {
    "id": 56,
    "Name": "Haralson Drugs",
    "Address": 0,
    "City": "Guntersville",
    "State": "AL",
    "Zip": 0,
    "PhoneNumber": "256-582-3661",
    "FaxNumber": "256-582-3648"
  },
  {
    "id": 57,
    "Name": "Hazel Green Pharmacy",
    "Address": 0,
    "City": "Hazel Green",
    "State": "AL",
    "Zip": 0,
    "PhoneNumber": "256-813-0150",
    "FaxNumber": "256-813-0149"
  },
  {
    "id": 58,
    "Name": "Hunnington Pharmacy",
    "Address": 0,
    "City": "Huntsville",
    "State": "AL",
    "Zip": 0,
    "PhoneNumber": "256-882-7979",
    "FaxNumber": "256-882-7919"
  },
  {
    "id": 59,
    "Name": "Huntsville Compounding",
    "Address": 0,
    "City": "Huntsville",
    "State": "AL",
    "Zip": 0,
    "PhoneNumber": "256-425-0123",
    "FaxNumber": "256-425-0195"
  },
  {
    "id": 60,
    "Name": "Huntsville Hospital Outpatient Ph",
    "Address": 0,
    "City": "Huntsville",
    "State": "AL",
    "Zip": 0,
    "PhoneNumber": "256-265-3400",
    "FaxNumber": "256-265-3401"
  },
  {
    "id": 61,
    "Name": "Jay's Pharmacy",
    "Address": 0,
    "City": "Huntsville",
    "State": "AL",
    "Zip": 0,
    "PhoneNumber": "256-851-1346",
    "FaxNumber": "256-851-1347"
  },
  {
    "id": 62,
    "Name": "Joe's Pharmacy",
    "Address": 0,
    "City": "Harvest",
    "State": "AL",
    "Zip": 0,
    "PhoneNumber": "256-230-3415",
    "FaxNumber": "256-230-3407"
  },
  {
    "id": 63,
    "Name": "Jones Discount  Pharmacy",
    "Address": 0,
    "City": "Arab",
    "State": "AL",
    "Zip": 0,
    "PhoneNumber": "256-586-3179",
    "FaxNumber": "256-586-9776"
  },
  {
    "id": 64,
    "Name": "Jones Drug Co.",
    "Address": 0,
    "City": "Ardmore",
    "State": "AL",
    "Zip": 0,
    "PhoneNumber": "256-423-2155",
    "FaxNumber": "256-423-8999"
  },
  {
    "id": 65,
    "Name": "Kilgore",
    "Address": 0,
    "City": "Rainsville",
    "State": "AL",
    "Zip": 0,
    "PhoneNumber": "256-638-4142",
    "FaxNumber": "256-638-4149"
  },
  {
    "id": 66,
    "Name": "Kilgore Pharmacy",
    "Address": 0,
    "City": "Gurley",
    "State": "AL",
    "Zip": 0,
    "PhoneNumber": "256-776-4430",
    "FaxNumber": "256-776-4523"
  },
  {
    "id": 67,
    "Name": "K-Mart",
    "Address": 0,
    "City": "Albertville",
    "State": "AL",
    "Zip": 0,
    "PhoneNumber": "256-878-9033",
    "FaxNumber": "256-878-0642"
  },
  {
    "id": 68,
    "Name": "K-Mart",
    "Address": 0,
    "City": "Athens",
    "State": "AL",
    "Zip": 0,
    "PhoneNumber": "256-233-0181",
    "FaxNumber": "256-233-1626"
  },
  {
    "id": 69,
    "Name": "K-Mart",
    "Address": 0,
    "City": "Decatur",
    "State": "AL",
    "Zip": 0,
    "PhoneNumber": "256-350-2572",
    "FaxNumber": "256-350-9175"
  },
  {
    "id": 70,
    "Name": "K-Mart",
    "Address": 0,
    "City": "Huntsville",
    "State": "AL",
    "Zip": 0,
    "PhoneNumber": "256-539-0463",
    "FaxNumber": "256-539-5817"
  },
  {
    "id": 71,
    "Name": "K-Mart",
    "Address": 0,
    "City": "Scottsboro",
    "State": "AL",
    "Zip": 0,
    "PhoneNumber": "256-259-2530",
    "FaxNumber": "256-259-5603"
  },
  {
    "id": 72,
    "Name": "Kroger",
    "Address": 0,
    "City": "Decatur",
    "State": "AL",
    "Zip": 0,
    "PhoneNumber": "256-350-3201",
    "FaxNumber": "256-584-6804"
  },
  {
    "id": 73,
    "Name": "Kroger",
    "Address": 0,
    "City": "Hartselle",
    "State": "AL",
    "Zip": 0,
    "PhoneNumber": "256-751-2102",
    "FaxNumber": "256-751-3483"
  },
  {
    "id": 74,
    "Name": "Kroger Drake Ave",
    "Address": 0,
    "City": "Huntsville",
    "State": "AL",
    "Zip": 0,
    "PhoneNumber": "256-650-5982",
    "FaxNumber": "256-650-0964"
  },
  {
    "id": 75,
    "Name": "Kroger Oakwood Ave",
    "Address": 0,
    "City": "Huntsville",
    "State": "AL",
    "Zip": 0,
    "PhoneNumber": "256-539-5136",
    "FaxNumber": "256-551-3200"
  },
  {
    "id": 76,
    "Name": "Kroger  S. Memorial Pky",
    "Address": 0,
    "City": "Huntsville",
    "State": "AL",
    "Zip": 0,
    "PhoneNumber": "256-881-6481",
    "FaxNumber": "256-883-9529"
  },
  {
    "id": 77,
    "Name": "Kroger Moores Mill Rd.",
    "Address": 0,
    "City": "Huntsville",
    "State": "AL",
    "Zip": 0,
    "PhoneNumber": "256-852-4267",
    "FaxNumber": "256-852-1354"
  },
  {
    "id": 78,
    "Name": "Kroger Hughes Rd.",
    "Address": 0,
    "City": "Madison",
    "State": "AL",
    "Zip": 0,
    "PhoneNumber": "256-461-8530",
    "FaxNumber": "256-464-5528"
  },
  {
    "id": 79,
    "Name": "Latham Drugs",
    "Address": 0,
    "City": "Arab",
    "State": "AL",
    "Zip": 0,
    "PhoneNumber": "256-586-4132",
    "FaxNumber": "256-931-0582"
  },
  {
    "id": 80,
    "Name": "Limestone Drugs",
    "Address": 0,
    "City": "Athens",
    "State": "AL",
    "Zip": 0,
    "PhoneNumber": "256-232-3811",
    "FaxNumber": "256-232-2422"
  },
  {
    "id": 81,
    "Name": "Madison Drugs",
    "Address": 0,
    "City": "Madison",
    "State": "AL",
    "Zip": 0,
    "PhoneNumber": "256-837-1778",
    "FaxNumber": "256-837-0357"
  },
  {
    "id": 82,
    "Name": "Med Surg Pharmacy",
    "Address": 0,
    "City": "Decatur",
    "State": "AL",
    "Zip": 0,
    "PhoneNumber": "256-355-2828",
    "FaxNumber": "256-355-1558"
  },
  {
    "id": 83,
    "Name": "Medicine Shoppe",
    "Address": 0,
    "City": "Decatur",
    "State": "AL",
    "Zip": 0,
    "PhoneNumber": "256-350-3338",
    "FaxNumber": "256-350-9829"
  },
  {
    "id": 84,
    "Name": "Medicine Shoppe Ph & Comp",
    "Address": 0,
    "City": "Huntsville",
    "State": "AL",
    "Zip": 0,
    "PhoneNumber": "256-536-1944",
    "FaxNumber": "256-536-1910"
  },
  {
    "id": 85,
    "Name": "Mill Street Pharmacy",
    "Address": 0,
    "City": "Boaz",
    "State": "AL",
    "Zip": 0,
    "PhoneNumber": "256-593-5279",
    "FaxNumber": "256-593-1991"
  },
  {
    "id": 86,
    "Name": "Morgan Drugs",
    "Address": 0,
    "City": "Lacey's Springs",
    "State": "AL",
    "Zip": 0,
    "PhoneNumber": "256-498-3200",
    "FaxNumber": "256-498-3202"
  },
  {
    "id": 87,
    "Name": "New Hope Family Pharmacy",
    "Address": 0,
    "City": "New Hope",
    "State": "AL",
    "Zip": 0,
    "PhoneNumber": "256-723-2911",
    "FaxNumber": "256-723-5400"
  },
  {
    "id": 88,
    "Name": "New Market Discount Drug",
    "Address": 0,
    "City": "New Market",
    "State": "AL",
    "Zip": 0,
    "PhoneNumber": "256-379-4670",
    "FaxNumber": "256-379-4680"
  },
  {
    "id": 89,
    "Name": "North Alabama Infusion Company",
    "Address": 0,
    "City": "Muscle Shoals",
    "State": "AL",
    "Zip": 0,
    "PhoneNumber": "256-389-9297",
    "FaxNumber": "256-381-3475"
  },
  {
    "id": 90,
    "Name": "North Jackson Pharmacy",
    "Address": 0,
    "City": "STE",
    "State": "AL",
    "Zip": 0,
    "PhoneNumber": "256-437-2248",
    "FaxNumber": "256-437-9003"
  },
  {
    "id": 91,
    "Name": "Omni Care Pharmacy",
    "Address": 0,
    "City": "Huntsville",
    "State": "AL",
    "Zip": 0,
    "PhoneNumber": "256-922-1777",
    "FaxNumber": "888-922-1786"
  },
  {
    "id": 92,
    "Name": "Parkway Pharmacy :Hwy 231",
    "Address": 0,
    "City": "Arab",
    "State": "AL",
    "Zip": 0,
    "PhoneNumber": "256-586-3293",
    "FaxNumber": "256-586-1135"
  },
  {
    "id": 93,
    "Name": "Parkway Pharmacy: Brindlee Mtn",
    "Address": 0,
    "City": "Arab",
    "State": "AL",
    "Zip": 0,
    "PhoneNumber": "256-586-4120",
    "FaxNumber": "256-586-1135"
  },
  {
    "id": 94,
    "Name": "Pay Less Danville Rd.",
    "Address": 0,
    "City": "Decatur",
    "State": "AL",
    "Zip": 0,
    "PhoneNumber": "256-351-7006",
    "FaxNumber": "256-351-7410"
  },
  {
    "id": 95,
    "Name": "Pay Less Medical Dr.",
    "Address": 0,
    "City": "Decatur",
    "State": "AL",
    "Zip": 0,
    "PhoneNumber": "256-353-5011",
    "FaxNumber": "256-355-5152"
  },
  {
    "id": 96,
    "Name": "Pay Less Moulton St.",
    "Address": 0,
    "City": "Decatur",
    "State": "AL",
    "Zip": 0,
    "PhoneNumber": "256-355-1815",
    "FaxNumber": "256-350-5300"
  },
  {
    "id": 97,
    "Name": "Personal Touch Pharmacy",
    "Address": 0,
    "City": "Decatur",
    "State": "AL",
    "Zip": 0,
    "PhoneNumber": "256-351-0404",
    "FaxNumber": "256-351-2073"
  },
  {
    "id": 98,
    "Name": "Pharmacy Care Associates",
    "Address": 0,
    "City": "Huntsville",
    "State": "AL",
    "Zip": 0,
    "PhoneNumber": "256-713-3975",
    "FaxNumber": "256-258-0385"
  },
  {
    "id": 99,
    "Name": "Pharmacy Express",
    "Address": 0,
    "City": "Madison",
    "State": "AL",
    "Zip": 0,
    "PhoneNumber": "256-722-9644",
    "FaxNumber": "256-722-9667"
  },
  {
    "id": 100,
    "Name": "Pharmacy First",
    "Address": 0,
    "City": "Huntsville",
    "State": "AL",
    "Zip": 0,
    "PhoneNumber": "256-533-9314",
    "FaxNumber": "256-533-9318"
  },
  {
    "id": 101,
    "Name": "Pill Box: 2422 Danville Rd SW",
    "Address": 0,
    "City": "Decatur",
    "State": "AL",
    "Zip": 0,
    "PhoneNumber": "256-353-1121",
    "FaxNumber": "256-353-1790"
  },
  {
    "id": 102,
    "Name": "Pill Box: 474 Hwy 67 S",
    "Address": 0,
    "City": "Decatur",
    "State": "AL",
    "Zip": 0,
    "PhoneNumber": "256-353-0100",
    "FaxNumber": "256-353-0299"
  },
  {
    "id": 103,
    "Name": "Pisgah Pharmacy",
    "Address": 0,
    "City": "Pisgah",
    "State": "AL",
    "Zip": 0,
    "PhoneNumber": "256-451-3283",
    "FaxNumber": "256-451-6088"
  },
  {
    "id": 104,
    "Name": "Propst Discount Drugs",
    "Address": 0,
    "City": "Huntsville",
    "State": "AL",
    "Zip": 0,
    "PhoneNumber": "256-539-7445",
    "FaxNumber": "256-539-1012"
  },
  {
    "id": 105,
    "Name": "Publix",
    "Address": 0,
    "City": "Huntsville",
    "State": "AL",
    "Zip": 0,
    "PhoneNumber": "256-534-2333",
    "FaxNumber": "256-203-8752"
  },
  {
    "id": 106,
    "Name": "Publix",
    "Address": 0,
    "City": "Athens",
    "State": "AL",
    "Zip": 0,
    "PhoneNumber": "256-230-2324",
    "FaxNumber": "256-230-2547"
  },
  {
    "id": 107,
    "Name": "Publix",
    "Address": 0,
    "City": "Decatur",
    "State": "AL",
    "Zip": 0,
    "PhoneNumber": "256-301-6411",
    "FaxNumber": "256-301-5593"
  },
  {
    "id": 108,
    "Name": "Publix",
    "Address": 0,
    "City": "Florence",
    "State": "AL",
    "Zip": 0,
    "PhoneNumber": "256-718-1795",
    "FaxNumber": "256-513-6291"
  },
  {
    "id": 109,
    "Name": "Publix",
    "Address": 0,
    "City": "Guntersville",
    "State": "AL",
    "Zip": 0,
    "PhoneNumber": "256-571-2506",
    "FaxNumber": "256-571-2510"
  },
  {
    "id": 110,
    "Name": "Publix",
    "Address": 0,
    "City": "Harvest",
    "State": "AL",
    "Zip": 0,
    "PhoneNumber": "256-851-5963",
    "FaxNumber": "256-851-5969"
  },
  {
    "id": 111,
    "Name": "Publix Bailey Cove Rd.",
    "Address": 0,
    "City": "Huntsville",
    "State": "AL",
    "Zip": 0,
    "PhoneNumber": "256-885-2161",
    "FaxNumber": "256-885-2464"
  },
  {
    "id": 112,
    "Name": "Publix Whitesburg Dr.",
    "Address": 0,
    "City": "Huntsville",
    "State": "AL",
    "Zip": 0,
    "PhoneNumber": "256-650-2396",
    "FaxNumber": "256-885-0393"
  },
  {
    "id": 113,
    "Name": "Publix Winchester Rd.",
    "Address": 0,
    "City": "Huntsville",
    "State": "AL",
    "Zip": 0,
    "PhoneNumber": "256-851-5813",
    "FaxNumber": "256-851-5818"
  },
  {
    "id": 114,
    "Name": "Publix Hwy 72 West",
    "Address": 0,
    "City": "Huntsville",
    "State": 0,
    "Zip": 0,
    "PhoneNumber": "256-864-0511",
    "FaxNumber": "256-864-0511"
  },
  {
    "id": 115,
    "Name": "Publix County Line Rd.",
    "Address": 0,
    "City": "Madison",
    "State": "AL",
    "Zip": 0,
    "PhoneNumber": "256-230-2631",
    "FaxNumber": "256-230-2636"
  },
  {
    "id": 116,
    "Name": "Publix Madison Blvd.",
    "Address": 0,
    "City": "Madison",
    "State": "AL",
    "Zip": 0,
    "PhoneNumber": "256-461-6467",
    "FaxNumber": "256-461-1866"
  },
  {
    "id": 117,
    "Name": "Publix",
    "Address": 0,
    "City": "Meridianville",
    "State": "AL",
    "Zip": 0,
    "PhoneNumber": "256-829-3492",
    "FaxNumber": "256-829-3497"
  },
  {
    "id": 118,
    "Name": "Publix",
    "Address": 0,
    "City": "Owens Cross Roads",
    "State": "AL",
    "Zip": 0,
    "PhoneNumber": "256-512-5679",
    "FaxNumber": "256-513-6290"
  },
  {
    "id": 119,
    "Name": "Quick Care Pharmacy",
    "Address": 0,
    "City": "Huntsville",
    "State": "AL",
    "Zip": 0,
    "PhoneNumber": "256-517-8317",
    "FaxNumber": "256-715-0058"
  },
  {
    "id": 120,
    "Name": "Rainsville Compounding Ph",
    "Address": 0,
    "City": "Rainsville",
    "State": "AL",
    "Zip": 0,
    "PhoneNumber": "256-638-2255",
    "FaxNumber": "256-638-2257"
  },
  {
    "id": 121,
    "Name": "Rite Aid 1606 2nd Ave SW",
    "Address": 0,
    "City": "Cullman",
    "State": "AL",
    "Zip": 0,
    "PhoneNumber": "256-739-1993",
    "FaxNumber": "256-739-2739"
  },
  {
    "id": 122,
    "Name": "Rite Aid  Cullman Shop Ctr",
    "Address": 0,
    "City": "Cullman",
    "State": "AL",
    "Zip": 0,
    "PhoneNumber": "256-734-8440",
    "FaxNumber": "256-734-2323"
  },
  {
    "id": 123,
    "Name": "Rite Aid 1526 6th Ave. SE",
    "Address": 0,
    "City": "Decatur",
    "State": "AL",
    "Zip": 0,
    "PhoneNumber": "256-353-1195",
    "FaxNumber": "256-536-7216"
  },
  {
    "id": 124,
    "Name": "Rite Aid 2202 Danville Rd SW",
    "Address": 0,
    "City": "Decatur",
    "State": "AL",
    "Zip": 0,
    "PhoneNumber": "256-353-7131",
    "FaxNumber": "256-353-9170"
  },
  {
    "id": 125,
    "Name": "Rite Aid 1313 North Wood Ave.",
    "Address": 0,
    "City": "Florence",
    "State": "AL",
    "Zip": 0,
    "PhoneNumber": "256-766-2144",
    "FaxNumber": "256-767-8131"
  },
  {
    "id": 126,
    "Name": "Rite Aid 2403 Florence Blvd",
    "Address": 0,
    "City": "Florence",
    "State": "AL",
    "Zip": 0,
    "PhoneNumber": "256-766-7450",
    "FaxNumber": "256-718-3469"
  },
  {
    "id": 127,
    "Name": "Rite Aid",
    "Address": 0,
    "City": "Fort Payne",
    "State": "AL",
    "Zip": 0,
    "PhoneNumber": "256-845-6338",
    "FaxNumber": "256-845-3876"
  },
  {
    "id": 128,
    "Name": "Rite Aid",
    "Address": 0,
    "City": "Huntsville",
    "State": "AL",
    "Zip": 0,
    "PhoneNumber": "256-533-5883",
    "FaxNumber": "256-539-2501"
  },
  {
    "id": 129,
    "Name": "Rite Aid",
    "Address": 0,
    "City": "Hartselle",
    "State": "AL",
    "Zip": 0,
    "PhoneNumber": "256-773-6561",
    "FaxNumber": "256-773-6749"
  },
  {
    "id": 130,
    "Name": "Rite Aid",
    "Address": 0,
    "City": "Hazel Green",
    "State": "AL",
    "Zip": 0,
    "PhoneNumber": "256-828-5133",
    "FaxNumber": "256-828-4071"
  },
  {
    "id": 131,
    "Name": "Rite Aid Whitesburg/Airport",
    "Address": 0,
    "City": "Huntsville",
    "State": "AL",
    "Zip": 0,
    "PhoneNumber": "256-883-0325",
    "FaxNumber": "256-883-9676"
  },
  {
    "id": 132,
    "Name": "Rite Aid Winchester Rd.",
    "Address": 0,
    "City": "Huntsville",
    "State": "AL",
    "Zip": 0,
    "PhoneNumber": "256-852-3776",
    "FaxNumber": "256-852-6495"
  },
  {
    "id": 133,
    "Name": "Rite Aid Wynn Dr.",
    "Address": 0,
    "City": "Huntsville",
    "State": "AL",
    "Zip": 0,
    "PhoneNumber": "256-837-6240",
    "FaxNumber": "256-830-2548"
  },
  {
    "id": 134,
    "Name": "Rite Aid Hughes Rd.",
    "Address": 0,
    "City": "Madison",
    "State": "AL",
    "Zip": 0,
    "PhoneNumber": "256-464-3962",
    "FaxNumber": "256-464-9654"
  },
  {
    "id": 135,
    "Name": "Rite Aid Madison Blvd",
    "Address": 0,
    "City": "Madison",
    "State": "AL",
    "Zip": 0,
    "PhoneNumber": "256-461-6903",
    "FaxNumber": "256-464-8457"
  },
  {
    "id": 136,
    "Name": "Rite Aid",
    "Address": 0,
    "City": "Meridianville",
    "State": "AL",
    "Zip": 0,
    "PhoneNumber": "256-828-1000",
    "FaxNumber": "256-828-1088"
  },
  {
    "id": 137,
    "Name": "Rite Aid",
    "Address": 0,
    "City": "Rainsville",
    "State": "AL",
    "Zip": 0,
    "PhoneNumber": "256-638-4414",
    "FaxNumber": "256-638-2218"
  },
  {
    "id": 138,
    "Name": "Rogersville Discount Drugs",
    "Address": 0,
    "City": "Rogersville",
    "State": "AL",
    "Zip": 0,
    "PhoneNumber": "256-247-5441",
    "FaxNumber": "256-247-5442"
  },
  {
    "id": 139,
    "Name": "Sam's Club : National Blvd",
    "Address": 0,
    "City": "Huntsville",
    "State": "AL",
    "Zip": 0,
    "PhoneNumber": "256-881-8084",
    "FaxNumber": "256-881-8995"
  },
  {
    "id": 140,
    "Name": "Sam's Club: Holmes Ave.",
    "Address": 0,
    "City": "Huntsville",
    "State": "AL",
    "Zip": 0,
    "PhoneNumber": "256-837-7323",
    "FaxNumber": "256-837-7210"
  },
  {
    "id": 141,
    "Name": "Scottsboro Family Pharmacy",
    "Address": 0,
    "City": "Scottsboro",
    "State": "AL",
    "Zip": 0,
    "PhoneNumber": "256-259-9300",
    "FaxNumber": "256-259-9301"
  },
  {
    "id": 142,
    "Name": "Section Pharmacy",
    "Address": 0,
    "City": "Section",
    "State": "AL",
    "Zip": 0,
    "PhoneNumber": "256-228-7179",
    "FaxNumber": "256-228-3179"
  },
  {
    "id": 143,
    "Name": "Sorter's Pharmacy",
    "Address": 0,
    "City": "Guntersville",
    "State": "AL",
    "Zip": 0,
    "PhoneNumber": "256-753-2994",
    "FaxNumber": "256-753-6919"
  },
  {
    "id": 144,
    "Name": "Southside Pharmacy",
    "Address": 0,
    "City": "Tanner",
    "State": "AL",
    "Zip": 0,
    "PhoneNumber": "256-232-6588",
    "FaxNumber": "256-232-6589"
  },
  {
    "id": 145,
    "Name": "Star Pharmacy Bailey Cove",
    "Address": 0,
    "City": "Huntsville",
    "State": "AL",
    "Zip": 0,
    "PhoneNumber": "256-650-2335",
    "FaxNumber": "256-650-2337"
  },
  {
    "id": 146,
    "Name": "Star Pharmacy Pratt Avenue",
    "Address": 0,
    "City": "Huntsville",
    "State": "AL",
    "Zip": 0,
    "PhoneNumber": "256-534-1118",
    "FaxNumber": "256-534-1121"
  },
  {
    "id": 147,
    "Name": "Star Pharmacy",
    "Address": 0,
    "City": "Madison",
    "State": "AL",
    "Zip": 0,
    "PhoneNumber": "256-721-0739",
    "FaxNumber": "256-721-0879"
  },
  {
    "id": 148,
    "Name": "Star Pharmacy",
    "Address": 0,
    "City": "Meridianville",
    "State": "AL",
    "Zip": 0,
    "PhoneNumber": "256-829-0209",
    "FaxNumber": "256-829-0992"
  },
  {
    "id": 149,
    "Name": "Sterling Compounding",
    "Address": 0,
    "City": "Huntsville",
    "State": "AL",
    "Zip": 0,
    "PhoneNumber": "256-518-9530",
    "FaxNumber": "256-518-9531"
  },
  {
    "id": 150,
    "Name": "Steve's Pharmacy",
    "Address": 0,
    "City": "Moulton",
    "State": "AL",
    "Zip": 0,
    "PhoneNumber": "256-974-7663",
    "FaxNumber": "256-905-0320"
  },
  {
    "id": 151,
    "Name": "Sur Sav",
    "Address": 0,
    "City": "Harvest",
    "State": "AL",
    "Zip": 0,
    "PhoneNumber": "256-858-9677",
    "FaxNumber": "256-858-2388"
  },
  {
    "id": 152,
    "Name": "Sur Sav",
    "Address": 0,
    "City": "Huntsville",
    "State": "AL",
    "Zip": 0,
    "PhoneNumber": "256-230-6200",
    "FaxNumber": "256-230-6232"
  },
  {
    "id": 153,
    "Name": "Target Pharmacy",
    "Address": 0,
    "City": "Decatur",
    "State": "AL",
    "Zip": 0,
    "PhoneNumber": "256-898-3037",
    "FaxNumber": "256-898-3034"
  },
  {
    "id": 154,
    "Name": "Target Pharmacy Carl T. Jones",
    "Address": 0,
    "City": "Huntsville",
    "State": "AL",
    "Zip": 0,
    "PhoneNumber": "256-883-6295",
    "FaxNumber": "256-883-6295"
  },
  {
    "id": 155,
    "Name": "Target Pharmacy University Drive",
    "Address": 0,
    "City": "Huntsville",
    "State": "AL",
    "Zip": 0,
    "PhoneNumber": "256-971-0913",
    "FaxNumber": "256-971-0913"
  },
  {
    "id": 156,
    "Name": "Trinity Discount Drugs",
    "Address": 0,
    "City": "Decatur",
    "State": "AL",
    "Zip": 0,
    "PhoneNumber": "256-350-3365",
    "FaxNumber": "256-350-3366"
  },
  {
    "id": 157,
    "Name": "Valley Drugs - Somerville Rd",
    "Address": 0,
    "City": "Decatur",
    "State": "AL",
    "Zip": 0,
    "PhoneNumber": "256-355-8015",
    "FaxNumber": "256-355-7684"
  },
  {
    "id": 158,
    "Name": "Valley Drugs - 16th Avenue",
    "Address": 0,
    "City": "Decatur",
    "State": "AL",
    "Zip": 0,
    "PhoneNumber": "256-355-6225",
    "FaxNumber": "256-355-6243"
  },
  {
    "id": 159,
    "Name": "Walgreens",
    "Address": 0,
    "City": "Albertville",
    "State": "AL",
    "Zip": 0,
    "PhoneNumber": "256-878-4447",
    "FaxNumber": "256-878-6379"
  },
  {
    "id": 160,
    "Name": "Walgreens",
    "Address": 0,
    "City": "Athens",
    "State": "AL",
    "Zip": 0,
    "PhoneNumber": "256-230-2799",
    "FaxNumber": "256-230-2839"
  },
  {
    "id": 161,
    "Name": "Walgreens",
    "Address": 0,
    "City": "Boaz",
    "State": "AL",
    "Zip": 0,
    "PhoneNumber": "256-593-6092",
    "FaxNumber": "256-593-7445"
  },
  {
    "id": 162,
    "Name": "Walgreens 1700 2nd Ave",
    "Address": 0,
    "City": "Cullman",
    "State": "AL",
    "Zip": 0,
    "PhoneNumber": "256-734-7188",
    "FaxNumber": "256-734-7138"
  },
  {
    "id": 163,
    "Name": "Walgreens 444 2nd Ave",
    "Address": 0,
    "City": "Cullman",
    "State": "AL",
    "Zip": 0,
    "PhoneNumber": "256-736-9901",
    "FaxNumber": "256-775-2969"
  },
  {
    "id": 164,
    "Name": "Walgreens 1127 6th Ave S",
    "Address": 0,
    "City": "Decatur",
    "State": "AL",
    "Zip": 0,
    "PhoneNumber": "256-355-4495",
    "FaxNumber": "256-355-9971"
  },
  {
    "id": 165,
    "Name": "Walgreens 1718 Beltline Road",
    "Address": 0,
    "City": "Decatur",
    "State": "AL",
    "Zip": 0,
    "PhoneNumber": "256-584-6626",
    "FaxNumber": "256-584-9856"
  },
  {
    "id": 166,
    "Name": "Walgreens",
    "Address": 0,
    "City": "Fayetteville",
    "State": "TN",
    "Zip": 0,
    "PhoneNumber": "931-433-5569",
    "FaxNumber": "931-433-8671"
  },
  {
    "id": 167,
    "Name": "Walgreens Dr Hicks Blvd",
    "Address": 0,
    "City": "Florence",
    "State": "AL",
    "Zip": 0,
    "PhoneNumber": "256-718-0457",
    "FaxNumber": "256-718-3920"
  },
  {
    "id": 168,
    "Name": "Walgreens Florence Blvd",
    "Address": 0,
    "City": "Florence",
    "State": "AL",
    "Zip": 0,
    "PhoneNumber": "256-764-0436",
    "FaxNumber": "256-764-7429"
  },
  {
    "id": 169,
    "Name": "Walgreens",
    "Address": 0,
    "City": "Fort Payne",
    "State": "AL",
    "Zip": 0,
    "PhoneNumber": "256-845-0128",
    "FaxNumber": "256-845-9984"
  },
  {
    "id": 170,
    "Name": "Walgreens",
    "Address": 0,
    "City": "Guntersville",
    "State": "AL",
    "Zip": 0,
    "PhoneNumber": "256-582-2513",
    "FaxNumber": "256-582-2985"
  },
  {
    "id": 171,
    "Name": "Walgreens",
    "Address": 0,
    "City": "Hartselle",
    "State": "AL",
    "Zip": 0,
    "PhoneNumber": "256-773-4377",
    "FaxNumber": "256-773-1718"
  },
  {
    "id": 172,
    "Name": "Walgreens Brandon/Longwood",
    "Address": 0,
    "City": "Huntsville",
    "State": "AL",
    "Zip": 0,
    "PhoneNumber": "256-512-0957",
    "FaxNumber": "256-512-5578"
  },
  {
    "id": 173,
    "Name": "Walgreens Carl T. Jones",
    "Address": 0,
    "City": "Huntsville",
    "State": "AL",
    "Zip": 0,
    "PhoneNumber": "256-882-2883",
    "FaxNumber": "256-882-2982"
  },
  {
    "id": 174,
    "Name": "Walgreens Bob Wallace",
    "Address": 0,
    "City": "Huntsville",
    "State": "AL",
    "Zip": 0,
    "PhoneNumber": "256-533-5058",
    "FaxNumber": "256-533-6967"
  },
  {
    "id": 175,
    "Name": "Walgreens Mastin Lake Rd./Pulaski",
    "Address": 0,
    "City": "Huntsville",
    "State": "AL",
    "Zip": 0,
    "PhoneNumber": "256-851-4188",
    "FaxNumber": "256-851-4229"
  },
  {
    "id": 176,
    "Name": "Walgreens Univ. Dr./Jordan La.",
    "Address": 0,
    "City": "Huntsville",
    "State": "AL",
    "Zip": 0,
    "PhoneNumber": "256-534-2785",
    "FaxNumber": "256-534-3691"
  },
  {
    "id": 177,
    "Name": "Walgreens Mem'l Pky SW/Mt. Gap",
    "Address": 0,
    "City": "Huntsville",
    "State": "AL",
    "Zip": 0,
    "PhoneNumber": "256-885-2212",
    "FaxNumber": "256-885-2364"
  },
  {
    "id": 178,
    "Name": "Walgreens Memorial Pky",
    "Address": 0,
    "City": "Huntsville",
    "State": "AL",
    "Zip": 0,
    "PhoneNumber": "256-885-2212",
    "FaxNumber": "256-885-2364"
  },
  {
    "id": 179,
    "Name": "Walgreens  Hwy 72",
    "Address": 0,
    "City": "Madison",
    "State": "AL",
    "Zip": 0,
    "PhoneNumber": "256-895-9326",
    "FaxNumber": "256-895-9879"
  },
  {
    "id": 180,
    "Name": "Walgreens Cty Ln/Br Ferry",
    "Address": 0,
    "City": "Madison",
    "State": "AL",
    "Zip": 0,
    "PhoneNumber": "256-230-6345",
    "FaxNumber": "256-230-6799"
  },
  {
    "id": 181,
    "Name": "Walgreens Jeff Rd",
    "Address": 0,
    "City": "Madison",
    "State": "AL",
    "Zip": 0,
    "PhoneNumber": "256-721-2751",
    "FaxNumber": "256-721-9065"
  },
  {
    "id": 182,
    "Name": "Walgreens",
    "Address": 0,
    "City": "Owens Crossroads",
    "State": "AL",
    "Zip": 0,
    "PhoneNumber": "256-533-8982",
    "FaxNumber": "256-519-3883"
  },
  {
    "id": 183,
    "Name": "Walgreens",
    "Address": 0,
    "City": "Pulaski",
    "State": "TN",
    "Zip": 0,
    "PhoneNumber": "931-424-5335",
    "FaxNumber": "931-424-6463"
  },
  {
    "id": 184,
    "Name": "Walmart 1410 Florence Blvd",
    "Address": 0,
    "City": "Florence",
    "State": "AL",
    "Zip": 0,
    "PhoneNumber": "256-712-6198",
    "FaxNumber": "256-712-6199"
  },
  {
    "id": 185,
    "Name": "Walmart Supercenter",
    "Address": 0,
    "City": "Arab",
    "State": "AL",
    "Zip": 0,
    "PhoneNumber": "256-586-1540",
    "FaxNumber": "256-586-1526"
  },
  {
    "id": 186,
    "Name": "Walmart Supercenter",
    "Address": 0,
    "City": "Athens",
    "State": "AL",
    "Zip": 0,
    "PhoneNumber": "256-233-3568",
    "FaxNumber": "256-233-7301"
  },
  {
    "id": 187,
    "Name": "Walmart Supercenter",
    "Address": 0,
    "City": "Boaz",
    "State": "AL",
    "Zip": 0,
    "PhoneNumber": "256-593-0495",
    "FaxNumber": "256-593-2092"
  },
  {
    "id": 188,
    "Name": "Walmart Supercenter",
    "Address": 0,
    "City": "Cullman",
    "State": "AL",
    "Zip": 0,
    "PhoneNumber": "256-739-3390",
    "FaxNumber": "256-739-9125"
  },
  {
    "id": 189,
    "Name": "Walmart Supercenter",
    "Address": 0,
    "City": "Decatur",
    "State": "AL",
    "Zip": 0,
    "PhoneNumber": "256-350-9969",
    "FaxNumber": "256-350-8396"
  },
  {
    "id": 190,
    "Name": "Walmart Supercenter",
    "Address": 0,
    "City": "Fayetteville",
    "State": "TN",
    "Zip": 0,
    "PhoneNumber": "931-433-0011",
    "FaxNumber": "931-433-9723"
  },
  {
    "id": 191,
    "Name": "Walmart Supercenter Hough Road",
    "Address": 0,
    "City": "Florence",
    "State": "AL",
    "Zip": 0,
    "PhoneNumber": "256-767-4725",
    "FaxNumber": "256-767-5965"
  },
  {
    "id": 192,
    "Name": "Walmart Supercenter",
    "Address": 0,
    "City": "Fort Payne",
    "State": "AL",
    "Zip": 0,
    "PhoneNumber": "256-997-1194",
    "FaxNumber": "256-997-1196"
  },
  {
    "id": 193,
    "Name": "Walmart Supercenter",
    "Address": 0,
    "City": "Guntersville",
    "State": "AL",
    "Zip": 0,
    "PhoneNumber": "256-878-8414",
    "FaxNumber": "256-878-9387"
  },
  {
    "id": 194,
    "Name": "Walmart Supercenter",
    "Address": 0,
    "City": "Hartselle",
    "State": "AL",
    "Zip": 0,
    "PhoneNumber": "256-773-1799",
    "FaxNumber": "256-773-9456"
  },
  {
    "id": 195,
    "Name": "Walmart Supercenter Drake/Mem Pky",
    "Address": 0,
    "City": "Huntsville",
    "State": "AL",
    "Zip": 0,
    "PhoneNumber": "256-536-0315",
    "FaxNumber": "256-536-6342"
  },
  {
    "id": 196,
    "Name": "Walmart Supercenter Hampton Cove",
    "Address": 0,
    "City": "Huntsville",
    "State": "AL",
    "Zip": 0,
    "PhoneNumber": "256-534-4775",
    "FaxNumber": "256-534-4056"
  },
  {
    "id": 197,
    "Name": "Walmart Supercenter Mem Pky",
    "Address": 0,
    "City": "Huntsville",
    "State": "AL",
    "Zip": 0,
    "PhoneNumber": "256-880-7261",
    "FaxNumber": "256-880-7083"
  },
  {
    "id": 198,
    "Name": "Walmart Supercenter Sparkman Dr.",
    "Address": 0,
    "City": "Huntsville",
    "State": "AL",
    "Zip": 0,
    "PhoneNumber": "256-852-1323",
    "FaxNumber": "256-859-5169"
  },
  {
    "id": 199,
    "Name": "Walmart Supercenter University Dr.",
    "Address": 0,
    "City": "Huntsville",
    "State": "AL",
    "Zip": 0,
    "PhoneNumber": "256-837-1656",
    "FaxNumber": "256-837-4501"
  },
  {
    "id": 200,
    "Name": "Walmart Supercenter",
    "Address": 0,
    "City": "Madison",
    "State": "AL",
    "Zip": 0,
    "PhoneNumber": "256-461-7812",
    "FaxNumber": "256-461-4810"
  },
  {
    "id": 201,
    "Name": "Walmart Supercenter",
    "Address": 0,
    "City": "Pulaski",
    "State": "TN",
    "Zip": 0,
    "PhoneNumber": "931-424-5584",
    "FaxNumber": "931-424-9534"
  },
  {
    "id": 202,
    "Name": "Walmart Supercenter",
    "Address": 0,
    "City": "Scottsboro",
    "State": "AL",
    "Zip": 0,
    "PhoneNumber": "256-574-1803",
    "FaxNumber": "256-574-1363"
  },
  {
    "id": 203,
    "Name": "Westmeade Pharmacy",
    "Address": 0,
    "City": "Decatur",
    "State": "AL",
    "Zip": 0,
    "PhoneNumber": "256-355-8211",
    "FaxNumber": "256-351-8375"
  },
  {
    "id": 204,
    "Name": "Westside Jiffy Pharmacy",
    "Address": 0,
    "City": "Athens",
    "State": "AL",
    "Zip": 0,
    "PhoneNumber": "256-233-2307",
    "FaxNumber": "256-233-0865"
  }
]
